#dP2019 12 22  0  0  0.00000000      97 __u+U IGS08 FIT  IAC
## 2085      0.00000000   900.00000000 58839 0.0000000000000
+  114   C01C02C03C04C05C06C07C08C09C10C11C12C13C14C16C19C20
+        C21C22C23C24C25C26C27C28C29C30C32C33C34C35C36C37E01
+        E02E03E04E05E07E08E09E11E12E13E14E15E18E19E21E24E25
+        E26E27E30E31E33E36G01G02G03G04G05G06G07G08G09G10G11
+        G12G13G14G15G16G17G18G19G20G21G22G23G24G25G26G27G28
+        G29G30G31G32J01J02J03J07R01R02R03R05R07R08R09R11R12
+        R13R14R15R16R17R18R19R20R21R22R23R26  0  0  0  0  0
++        13 13 13 13 12  8  8  8  8  8  7  7  8  7  8  7  7
++         7  7  7  7  7  7  7  7  7  7  7  7  7  8  8  8  4
++         4  4  4  3  4  4  4  3  4  3  4  3  4  4  4  3  4
++         4  4  4  3  4  4  3  3  3  3  3  3  3  3  3  3  5
++         3  3  3  3  3  3  3  3  3  3  3  3  3  3  3  3  3
++         3  3  3  3  8  8  8 13  6  5  5  5  5  5  5  5  5
++         7  5  5  5  5  5  6  6  5  5  5  7  0  0  0  0  0
%c M  cc GPS ccc cccc cccc cccc cccc ccccc ccccc ccccc ccccc
%c cc cc ccc ccc cccc cccc cccc cccc ccccc ccccc ccccc ccccc
%f  1.2500000  1.025000000  0.00000000000  0.000000000000000
%f  0.0000000  0.000000000  0.00000000000  0.000000000000000
%i    0    0    0    0      0      0      0      0         0
%i    0    0    0    0      0      0      0      0         0
/* INFORMATION & ANALYSIS CENTER (IAC)            FINAL DATA
/* S/V CLOCKS ARE ALIGNED TO GNSS TIME                      
/* G:C1WC2W R:C1PC2P E:C1XC5X C:C2IC6I J:C1CC2S             
/* PCV:IGS14_2082 OL/AL:FES2004  NONE     YN ORB:CoN CLK:CoN
*  2019 12 22 15 15  0.00000000
PC01 -32298.174713  27076.607281   1021.055172    290.267967
PC02   4337.601885  41942.232893   -707.003449    660.065323
PC03 -14789.357769  39452.928194    223.008500    276.096489
PC04 -39599.668514  14477.136589    604.634034   -430.732377
PC05  21803.724713  36051.042165  -1004.552981    -64.538963
PC06  -8016.648734  25202.614598 -32419.662794    278.709729
PC07 -23177.432223  26882.496859  22599.719539    152.172192
PC08 -14890.214320  38707.081402   8627.490795    -62.161699
PC09   6087.270562  33100.087189 -24937.517466    206.365471
PC10  -6558.499590  28033.795453  30863.862504   -486.110261
PC11  18268.474080  14457.500498 -15341.400574    -75.670720
PC12  11295.024885  25464.471110   1985.273958    304.761499
PC13  -5612.270707  41520.451347  -5791.240958    168.626650
PC14  25986.347029   6670.261582  -7752.982212    378.439111
PC16  -5145.366830  26568.083586 -32259.507631   -906.912210
PC19 -27874.305590   -508.016950  -1082.745880    277.492689
PC20 -20430.758241 -11490.005098  15133.067535   -451.459507
PC21    605.755892  15989.801833 -22853.619307     85.807703
PC22 -19212.079467  10957.091113 -17005.549351   -555.231791
PC23  17941.011909 -20832.562051   4768.975533   -868.669755
PC24   9641.859239  13891.225712  22200.317271   -887.684142
PC25  19549.442537  -5812.163314  19035.592332   -455.806002
PC26  -4749.872056  24398.714638  12716.346619    505.970787
PC27  -4328.073600 -25519.105173 -10461.268477    247.100445
PC28   9887.194761 -14264.143911 -21841.913042    238.112113
PC29 -18463.595053  -4528.934154  20428.437462    163.226910
PC30 -16686.870441 -21324.281968   6794.601042    244.162472
PC32   -692.014218 -16006.180075  22854.311398   -854.852469
PC33  27891.630443    408.696099   1030.575348   -697.876107
PC34  16756.307538  21132.775981  -7126.280205   -331.065557
PC35  -9549.741841  14495.601275  21849.734228   -685.643524
PC36 -19629.574209   5193.374972 -19118.883450 999999.999999
PC37   5774.123122 -24387.534349 -12234.178774   -940.957618
PE01   1602.103303  17658.557095  23707.495765   -757.734273
PE02  -1700.786068 -17608.958813 -23725.156131    100.492706
PE03 -12724.911963 -20364.198986  17290.408578   -246.690710
PE04  26150.867457  13859.031152   -515.764990   -430.317096
PE05   8302.897872 -15010.000003  24116.898871   -420.609064
PE07 -24343.056003    921.376913 -16810.167769   -316.249656
PE08 -26307.107488 -13549.904511    330.909952   6245.578137
PE09  24272.743010  -1041.429634  16916.561017   6213.125914
PE11  15442.923050  -7835.930828 -24005.210462    466.735496
PE12  14670.124540  15084.121762 -20805.157708   6038.907940
PE13 -15386.118947   7644.079569  24116.302645    396.627085
PE14  16775.364378 -12264.716375 -25171.697700   -839.958982
PE15 -14755.933260 -14763.938007  20999.609609    883.479711
PE18 -10806.237549  10139.998386  18007.167292   -935.980524
PE19  10702.520212  20262.646282 -18738.994585     -2.314882
PE21 -17406.353077  20734.130802  11979.448264   -572.767003
PE24  26400.597589 -11473.819684   6831.803891   5702.724542
PE25  17484.985320 -20709.118274 -11883.249800   -499.114815
PE26  -7130.522824  25711.664524  12837.541823   3734.259049
PE27 -26346.267461  11636.238230  -6849.038899    319.679034
PE30 -19739.983774  -4473.858883 -21608.786156   4285.279148
PE31  19781.275081   4279.271724  21609.259086   -471.023575
PE33   5449.772383  28561.438375  -5530.879198   -471.373208
PE36   6983.483816 -25612.417926 -13077.547308    621.040355
PG01 -13840.838679  18214.954529  13009.565859   -237.995906
PG02  14395.527104   4401.973012 -21256.601378   -371.330242
PG03 -20230.634798  13400.207566 -10751.650803    -57.608064
PG04 -11389.792160  10140.399495 -21740.777068    -23.875563
PG05  25201.162525  -1348.125145  -8721.029844     -5.045111
PG06   8056.110596  17666.921152 -18058.693473   -160.970518
PG07  -5020.115939  25710.801954   2599.048692   -175.538799
PG08 -18309.416482    893.736806  19336.615771    -17.635935
PG09  -1127.828091  18059.207370 -19493.523680   -114.404096
PG10  -7824.128238 -13391.588205  21651.531414   -181.737169
PG11 -10353.721337  16687.330188  17504.689963   -411.974211
PG12  23475.687596  -9917.236716  -7383.182608    170.486405
PG13  20060.551335   8509.051290  15115.080826    -24.998806
PG14 -19022.246454 -18326.144155  -3274.364939    -43.331561
PG15  18284.848027  -3422.528451  18786.919023   -263.901838
PG16 -24964.757352  -1928.984246  -9703.817461   -105.654722
PG17  13517.305764  21876.380527   7205.856555    185.258111
PG18 -15275.021742  11005.336009  18195.581882    108.376347
PG19  17672.254404  19789.380520  -1349.253477   -222.849185
PG20   3255.372129 -17290.975313  19744.036909    527.694213
PG21    818.152267 -26202.071671   5716.234381    -67.052294
PG22 -24046.923539  10818.020983  -2445.470512   -778.794245
PG23 -10191.483835  11596.170355 -21258.201469   -147.963211
PG24  14182.922735 -16695.789077  14579.276085     -6.562089
PG25  12243.598935 -15898.030657 -17480.820837    -17.149877
PG26 -19258.435305  -6812.517196 -17107.589048    111.155414
PG27 -21694.229960 -10094.311623  11750.473428   -158.221947
PG28   7707.571349  13626.310997  22042.016872    749.318160
PG29   2496.804944 -17199.785282 -20106.941039     11.913711
PG30   2765.610628  23121.885795  12622.554070   -111.762315
PG31  -9721.198042 -15280.032564 -19295.664732    -11.512394
PG32 -15227.571518 -20915.409120   6375.259225    163.057778
PJ01 -32011.456568  16249.270193 -17458.426742   -327.082401
PJ02 -28483.006234  31046.805301   3314.312221     -0.425421
PJ03 -24715.316307  24024.397499  29401.828956    -10.248982
PJ07 -25348.144648  33700.750846    -17.900921     -0.068282
PR01  11869.658608  -7836.624503  21170.831517     54.511469
PR02 -10503.422404 -12247.652305  19807.986571    403.618887
PR03 -23375.885929  -8503.923462   5797.593164      6.909069
PR05  -9309.316921   8472.070986 -22187.469478     41.701743
PR07  23544.288138   8259.563160  -5169.122782    -31.052152
PR08  22803.614128    -81.221180  11459.454253     13.597645
PR09   1159.280364  13916.988812  21345.572314    107.614553
PR11  19306.651065 -12796.956183  10746.581247     15.754789
PR12  14962.973988 -19783.720189  -5859.555040     90.175466
PR13   1540.785225 -15631.698563 -20112.242142    -32.540267
PR14 -12400.804516  -2347.312214 -22152.545465     46.308941
PR15 -19207.475489  12204.326448 -11510.212757    105.426034
PR16 -14431.315036  20179.685607   6187.115995     -0.595335
PR17 -12121.162477 -15931.211738  15799.036354    285.979534
PR18 -10594.707994   1060.047418  23202.319786     18.871689
PR19  -3928.491190  17306.887595  18332.449913    -70.214786
PR20   5976.769913  24755.668701   1038.243125   -399.530321
PR21  12131.379171  15341.056019 -16386.372635    -93.310809
PR22   9605.661076  -4345.083368 -23219.653969     -6.576505
PR23    371.802048 -21459.069366 -13783.900298    274.864032
PR26   4651.563850  24600.658586   4980.436321     15.086679
EOF
